start=new Date('2021-09-27T00:00:00.000Z').valueOf();
sats=[{"FILE":"3129258","SITE":"AFETR","RA_OF_ASC_NODE":"172.6497","APOAPSIS":"548.392","GP_ID":"185549338","REV_AT_EPOCH":"8024","PERIAPSIS":"546.102","OBJECT_TYPE":"PAYLOAD","SEMIMAJOR_AXIS":"6925.382","DECAY_DATE":null,"TIME_SYSTEM":"UTC","OBJECT_NAME":"STARLINK-1321","ECCENTRICITY":"0.00016530","RCS_SIZE":"LARGE","CENTER_NAME":"EARTH","COUNTRY_CODE":"US","MEAN_ANOMALY":"285.1550","OBJECT_ID":"2020-025AU","BSTAR":"0.00023445000000","INCLINATION":"53.0546","NORAD_CAT_ID":"45573","EPOCH":"2021-09-26T10:34:38.023104","PERIOD":"95.593","CLASSIFICATION_TYPE":"U","TLE_LINE2":"2 45573  53.0546 172.6497 0001653  74.9622 285.1550 15.06389153 80241","EPHEMERIS_TYPE":"0","MEAN_MOTION_DOT":"0.00003211","ELEMENT_SET_NO":"999","TLE_LINE1":"1 45573U 20025AU  21269.44071786  .00003211  00000-0  23445-3 0  9998","REF_FRAME":"TEME","LAUNCH_DATE":"2020-04-22","MEAN_MOTION":"15.06389153","MEAN_ELEMENT_THEORY":"SGP4","MEAN_MOTION_DDOT":"0.0000000000000","ARG_OF_PERICENTER":"74.9622"},{"ARG_OF_PERICENTER":"77.3652","LAUNCH_DATE":"2020-04-22","REF_FRAME":"TEME","MEAN_ELEMENT_THEORY":"SGP4","MEAN_MOTION":"15.06392157","MEAN_MOTION_DDOT":"0.0000000000000","BSTAR":"0.00006114300000","OBJECT_ID":"2020-025AV","RCS_SIZE":"LARGE","CENTER_NAME":"EARTH","COUNTRY_CODE":"US","MEAN_ANOMALY":"282.7556","INCLINATION":"53.0547","PERIOD":"95.593","EPHEMERIS_TYPE":"0","TLE_LINE2":"2 45574  53.0547 172.5362 0001961  77.3652 282.7556 15.06392157 79958","CLASSIFICATION_TYPE":"U","NORAD_CAT_ID":"45574","EPOCH":"2021-09-26T11:11:45.395232","TLE_LINE1":"1 45574U 20025AV  21269.46649763  .00000629  00000-0  61143-4 0  9995","MEAN_MOTION_DOT":"0.00000629","ELEMENT_SET_NO":"999","RA_OF_ASC_NODE":"172.5362","APOAPSIS":"548.596","SITE":"AFETR","FILE":"3129288","GP_ID":"185553493","REV_AT_EPOCH":"7995","SEMIMAJOR_AXIS":"6925.373","OBJECT_TYPE":"PAYLOAD","DECAY_DATE":null,"PERIAPSIS":"545.880","ECCENTRICITY":"0.00019610","TIME_SYSTEM":"UTC","OBJECT_NAME":"STARLINK-1324"},{"REF_FRAME":"TEME","LAUNCH_DATE":"2020-04-22","MEAN_MOTION_DDOT":"0.0000000000000","MEAN_MOTION":"15.07868414","MEAN_ELEMENT_THEORY":"SGP4","ARG_OF_PERICENTER":"79.5630","REV_AT_EPOCH":"8058","GP_ID":"185550340","SITE":"AFETR","FILE":"3129258","APOAPSIS":"544.046","RA_OF_ASC_NODE":"169.6436","OBJECT_NAME":"STARLINK-1326","TIME_SYSTEM":"UTC","ECCENTRICITY":"0.00019200","PERIAPSIS":"541.388","DECAY_DATE":null,"OBJECT_TYPE":"PAYLOAD","SEMIMAJOR_AXIS":"6920.852","INCLINATION":"53.0004","MEAN_ANOMALY":"280.5575","COUNTRY_CODE":"US","RCS_SIZE":"LARGE","CENTER_NAME":"EARTH","OBJECT_ID":"2020-025AW","BSTAR":"0.00042756000000","ELEMENT_SET_NO":"999","MEAN_MOTION_DOT":"0.00006348","TLE_LINE1":"1 45575U 20025AW  21269.45777113  .00006348  00000-0  42756-3 0  9998","EPOCH":"2021-09-26T10:59:11.425632","NORAD_CAT_ID":"45575","CLASSIFICATION_TYPE":"U","TLE_LINE2":"2 45575  53.0004 169.6436 0001920  79.5630 280.5575 15.07868414 80584","EPHEMERIS_TYPE":"0","PERIOD":"95.499"},{"ECCENTRICITY":"0.00019030","TIME_SYSTEM":"UTC","OBJECT_NAME":"STARLINK-1328","SEMIMAJOR_AXIS":"6925.409","OBJECT_TYPE":"PAYLOAD","DECAY_DATE":null,"PERIAPSIS":"545.956","GP_ID":"185553936","REV_AT_EPOCH":"7994","RA_OF_ASC_NODE":"172.7190","APOAPSIS":"548.592","SITE":"AFETR","FILE":"3129290","TLE_LINE1":"1 45576U 20025AX  21269.42595831 -.00005612  00000-0 -35830-3 0  9991","MEAN_MOTION_DOT":"-0.00005612","ELEMENT_SET_NO":"999","PERIOD":"95.593","TLE_LINE2":"2 45576  53.0520 172.7190 0001903  72.9632 287.1566 15.06380255 79942","EPHEMERIS_TYPE":"0","CLASSIFICATION_TYPE":"U","NORAD_CAT_ID":"45576","EPOCH":"2021-09-26T10:13:22.797984","INCLINATION":"53.0520","OBJECT_ID":"2020-025AX","BSTAR":"-0.00035830000000","CENTER_NAME":"EARTH","RCS_SIZE":"LARGE","MEAN_ANOMALY":"287.1566","COUNTRY_CODE":"US","MEAN_MOTION_DDOT":"0.0000000000000","MEAN_ELEMENT_THEORY":"SGP4","MEAN_MOTION":"15.06380255","LAUNCH_DATE":"2020-04-22","REF_FRAME":"TEME","ARG_OF_PERICENTER":"72.9632"},{"ARG_OF_PERICENTER":"74.6697","MEAN_ELEMENT_THEORY":"SGP4","MEAN_MOTION":"15.06404536","MEAN_MOTION_DDOT":"0.0000000000000","LAUNCH_DATE":"2020-04-22","REF_FRAME":"TEME","TLE_LINE2":"2 45577  53.0551 172.6207 0002658  74.6697 285.4585 15.06404536 80542","CLASSIFICATION_TYPE":"U","EPHEMERIS_TYPE":"0","PERIOD":"95.592","EPOCH":"2021-09-26T10:45:12.749472","NORAD_CAT_ID":"45577","TLE_LINE1":"1 45577U 20025AY  21269.44806423  .00002171  00000-0  16462-3 0  9991","ELEMENT_SET_NO":"999","MEAN_MOTION_DOT":"0.00002171","BSTAR":"0.00016462000000","OBJECT_ID":"2020-025AY","MEAN_ANOMALY":"285.4585","COUNTRY_CODE":"US","CENTER_NAME":"EARTH","RCS_SIZE":"LARGE","INCLINATION":"53.0551","DECAY_DATE":null,"OBJECT_TYPE":"PAYLOAD","SEMIMAJOR_AXIS":"6925.335","PERIAPSIS":"545.359","ECCENTRICITY":"0.00026580","OBJECT_NAME":"STARLINK-1330","TIME_SYSTEM":"UTC","APOAPSIS":"549.040","RA_OF_ASC_NODE":"172.6207","FILE":"3129258","SITE":"AFETR","REV_AT_EPOCH":"8054","GP_ID":"185548839"},{"RA_OF_ASC_NODE":"174.5383","APOAPSIS":"548.566","SITE":"AFETR","FILE":"3129258","GP_ID":"185550090","REV_AT_EPOCH":"8049","OBJECT_TYPE":"PAYLOAD","SEMIMAJOR_AXIS":"6925.355","DECAY_DATE":null,"PERIAPSIS":"545.874","ECCENTRICITY":"0.00019430","OBJECT_NAME":"STARLINK-1331","TIME_SYSTEM":"UTC","OBJECT_ID":"2020-025AZ","BSTAR":"0.00003274100000","CENTER_NAME":"EARTH","RCS_SIZE":"LARGE","MEAN_ANOMALY":"279.7950","COUNTRY_CODE":"US","INCLINATION":"53.0554","PERIOD":"95.592","TLE_LINE2":"2 45578  53.0554 174.5383 0001943  80.3258 279.7950 15.06397889 80493","CLASSIFICATION_TYPE":"U","EPHEMERIS_TYPE":"0","NORAD_CAT_ID":"45578","EPOCH":"2021-09-26T00:29:30.848352","TLE_LINE1":"1 45578U 20025AZ  21269.02049593  .00000206  00000-0  32741-4 0  9999","MEAN_MOTION_DOT":"0.00000206","ELEMENT_SET_NO":"999","LAUNCH_DATE":"2020-04-22","REF_FRAME":"TEME","MEAN_MOTION":"15.06397889","MEAN_ELEMENT_THEORY":"SGP4","MEAN_MOTION_DDOT":"0.0000000000000","ARG_OF_PERICENTER":"80.3258"},{"LAUNCH_DATE":"2020-04-22","REF_FRAME":"TEME","MEAN_MOTION":"15.06402919","MEAN_ELEMENT_THEORY":"SGP4","MEAN_MOTION_DDOT":"0.0000000000000","ARG_OF_PERICENTER":"276.1338","RA_OF_ASC_NODE":"133.0841","APOAPSIS":"549.050","SITE":"AFETR","FILE":"3129258","GP_ID":"185549841","REV_AT_EPOCH":"8109","OBJECT_TYPE":"PAYLOAD","SEMIMAJOR_AXIS":"6925.340","DECAY_DATE":null,"PERIAPSIS":"545.360","ECCENTRICITY":"0.00026640","OBJECT_NAME":"STARLINK-1332","TIME_SYSTEM":"UTC","BSTAR":"0.00017351000000","OBJECT_ID":"2020-025BA","CENTER_NAME":"EARTH","RCS_SIZE":"LARGE","COUNTRY_CODE":"US","MEAN_ANOMALY":"83.9347","INCLINATION":"53.0537","PERIOD":"95.592","TLE_LINE2":"2 45579  53.0537 133.0841 0002664 276.1338  83.9347 15.06402919 81092","EPHEMERIS_TYPE":"0","CLASSIFICATION_TYPE":"U","NORAD_CAT_ID":"45579","EPOCH":"2021-09-26T08:15:13.299552","TLE_LINE1":"1 45579U 20025BA  21269.34390393  .00002304  00000-0  17351-3 0  9992","MEAN_MOTION_DOT":"0.00002304","ELEMENT_SET_NO":"999"},{"ARG_OF_PERICENTER":"75.1276","LAUNCH_DATE":"2020-04-22","REF_FRAME":"TEME","MEAN_MOTION_DDOT":"0.0000000000000","MEAN_ELEMENT_THEORY":"SGP4","MEAN_MOTION":"15.06405682","INCLINATION":"53.0536","OBJECT_ID":"2020-025BB","BSTAR":"-0.00002245500000","MEAN_ANOMALY":"284.9945","COUNTRY_CODE":"US","CENTER_NAME":"EARTH","RCS_SIZE":"LARGE","TLE_LINE1":"1 45580U 20025BB  21269.49137876 -.00000616  00000-0 -22455-4 0  9993","ELEMENT_SET_NO":"999","MEAN_MOTION_DOT":"-0.00000616","TLE_LINE2":"2 45580  53.0536 182.4222 0002096  75.1276 284.9945 15.06405682 79815","CLASSIFICATION_TYPE":"U","EPHEMERIS_TYPE":"0","PERIOD":"95.592","EPOCH":"2021-09-26T11:47:35.124864","NORAD_CAT_ID":"45580","REV_AT_EPOCH":"7981","GP_ID":"185553523","APOAPSIS":"548.648","RA_OF_ASC_NODE":"182.4222","SITE":"AFETR","FILE":"3129290","ECCENTRICITY":"0.00020960","TIME_SYSTEM":"UTC","OBJECT_NAME":"STARLINK-1333","DECAY_DATE":null,"OBJECT_TYPE":"PAYLOAD","SEMIMAJOR_AXIS":"6925.331","PERIAPSIS":"545.745"},{"ARG_OF_PERICENTER":"73.9373","MEAN_MOTION_DDOT":"0.0000000000000","MEAN_MOTION":"15.06390093","MEAN_ELEMENT_THEORY":"SGP4","REF_FRAME":"TEME","LAUNCH_DATE":"2020-04-22","MEAN_MOTION_DOT":"-0.00000685","ELEMENT_SET_NO":"999","TLE_LINE1":"1 45581U 20025BC  21269.42964292 -.00000685  00000-0 -27109-4 0  9994","NORAD_CAT_ID":"45581","EPOCH":"2021-09-26T10:18:41.148288","PERIOD":"95.593","EPHEMERIS_TYPE":"0","TLE_LINE2":"2 45581  53.0541 172.7030 0001950  73.9373 286.1830 15.06390093 79943","CLASSIFICATION_TYPE":"U","INCLINATION":"53.0541","CENTER_NAME":"EARTH","RCS_SIZE":"LARGE","COUNTRY_CODE":"US","MEAN_ANOMALY":"286.1830","OBJECT_ID":"2020-025BC","BSTAR":"-0.00002710900000","TIME_SYSTEM":"UTC","OBJECT_NAME":"STARLINK-1335","ECCENTRICITY":"0.00019500","PERIAPSIS":"545.893","SEMIMAJOR_AXIS":"6925.379","OBJECT_TYPE":"PAYLOAD","DECAY_DATE":null,"GP_ID":"185554752","REV_AT_EPOCH":"7994","FILE":"3129343","SITE":"AFETR","RA_OF_ASC_NODE":"172.7030","APOAPSIS":"548.594"},{"SEMIMAJOR_AXIS":"6925.369","OBJECT_TYPE":"PAYLOAD","DECAY_DATE":null,"PERIAPSIS":"545.760","ECCENTRICITY":"0.00021290","OBJECT_NAME":"STARLINK-1337","TIME_SYSTEM":"UTC","RA_OF_ASC_NODE":"172.6048","APOAPSIS":"548.708","FILE":"3129319","SITE":"AFETR","GP_ID":"185554308","REV_AT_EPOCH":"7994","PERIOD":"95.593","CLASSIFICATION_TYPE":"U","TLE_LINE2":"2 45582  53.0553 172.6048 0002129  73.0637 287.0585 15.06393352 79946","EPHEMERIS_TYPE":"0","NORAD_CAT_ID":"45582","EPOCH":"2021-09-26T10:50:32.045856","TLE_LINE1":"1 45582U 20025BD  21269.45175979  .00000362  00000-0  43233-4 0  9990","MEAN_MOTION_DOT":"0.00000362","ELEMENT_SET_NO":"999","OBJECT_ID":"2020-025BD","BSTAR":"0.00004323300000","CENTER_NAME":"EARTH","RCS_SIZE":"LARGE","MEAN_ANOMALY":"287.0585","COUNTRY_CODE":"US","INCLINATION":"53.0553","MEAN_MOTION":"15.06393352","MEAN_ELEMENT_THEORY":"SGP4","MEAN_MOTION_DDOT":"0.0000000000000","LAUNCH_DATE":"2020-04-22","REF_FRAME":"TEME","ARG_OF_PERICENTER":"73.0637"}];
